CCSDS_OMM_VERS = 2.0
CREATION_DATE  = 
ORIGINATOR     = 

OBJECT_NAME    = SL-4 R/B
OBJECT_ID      = 2014-021B
CENTER_NAME    = EARTH
REF_FRAME      = TEME
TIME_SYSTEM    = UTC
MEAN_ELEMENT_THEORY = SGP/SGP4

EPOCH          = 2025-12-07T06:47:13.240896
MEAN_MOTION    = 15.36471770
ECCENTRICITY   = .01023243
INCLINATION    = 51.6080
RA_OF_ASC_NODE = 67.1110
ARG_OF_PERICENTER = 126.4922
MEAN_ANOMALY   = 234.5541

EPHEMERIS_TYPE = 0
CLASSIFICATION_TYPE = U
NORAD_CAT_ID   = 39679
ELEMENT_SET_NO = 999
REV_AT_EPOCH   = 64205
BSTAR          = .41351177E-3
MEAN_MOTION_DOT = .1742E-3
MEAN_MOTION_DDOT = 0

CCSDS_OMM_VERS = 2.0
CREATION_DATE  = 
ORIGINATOR     = 

OBJECT_NAME    = ALOS-2
OBJECT_ID      = 2014-029A
CENTER_NAME    = EARTH
REF_FRAME      = TEME
TIME_SYSTEM    = UTC
MEAN_ELEMENT_THEORY = SGP/SGP4

EPOCH          = 2025-12-07T06:21:13.934304
MEAN_MOTION    = 14.79458027
ECCENTRICITY   = .00014582
INCLINATION    = 97.9233
RA_OF_ASC_NODE = 76.1891
ARG_OF_PERICENTER = 104.9983
MEAN_ANOMALY   = 255.1390

EPHEMERIS_TYPE = 0
CLASSIFICATION_TYPE = U
NORAD_CAT_ID   = 39766
ELEMENT_SET_NO = 999
REV_AT_EPOCH   = 62320
BSTAR          = .46763648E-3
MEAN_MOTION_DOT = .3441E-4
MEAN_MOTION_DDOT = 0

CCSDS_OMM_VERS = 2.0
CREATION_DATE  = 
ORIGINATOR     = 

OBJECT_NAME    = YAOGAN-29
OBJECT_ID      = 2015-069A
CENTER_NAME    = EARTH
REF_FRAME      = TEME
TIME_SYSTEM    = UTC
MEAN_ELEMENT_THEORY = SGP/SGP4

EPOCH          = 2025-12-07T06:52:30.261504
MEAN_MOTION    = 14.82873565
ECCENTRICITY   = .00004496
INCLINATION    = 98.0223
RA_OF_ASC_NODE = 4.4405
ARG_OF_PERICENTER = 355.0125
MEAN_ANOMALY   = 5.1083

EPHEMERIS_TYPE = 0
CLASSIFICATION_TYPE = U
NORAD_CAT_ID   = 41038
ELEMENT_SET_NO = 999
REV_AT_EPOCH   = 54218
BSTAR          = .11843946E-3
MEAN_MOTION_DOT = .905E-5
MEAN_MOTION_DDOT = 0

CCSDS_OMM_VERS = 2.0
CREATION_DATE  = 
ORIGINATOR     = 

OBJECT_NAME    = ASTRO-H (HITOMI)
OBJECT_ID      = 2016-012A
CENTER_NAME    = EARTH
REF_FRAME      = TEME
TIME_SYSTEM    = UTC
MEAN_ELEMENT_THEORY = SGP/SGP4

EPOCH          = 2025-12-07T01:39:15.316992
MEAN_MOTION    = 15.09298892
ECCENTRICITY   = .00094631
INCLINATION    = 30.9987
RA_OF_ASC_NODE = 233.9309
ARG_OF_PERICENTER = 121.5096
MEAN_ANOMALY   = 238.6468

EPHEMERIS_TYPE = 0
CLASSIFICATION_TYPE = U
NORAD_CAT_ID   = 41337
ELEMENT_SET_NO = 999
REV_AT_EPOCH   = 53822
BSTAR          = .32035872E-3
MEAN_MOTION_DOT = .5331E-4
MEAN_MOTION_DDOT = 0

CCSDS_OMM_VERS = 2.0
CREATION_DATE  = 
ORIGINATOR     = 

OBJECT_NAME    = HXMT (HUIYAN)
OBJECT_ID      = 2017-034A
CENTER_NAME    = EARTH
REF_FRAME      = TEME
TIME_SYSTEM    = UTC
MEAN_ELEMENT_THEORY = SGP/SGP4

EPOCH          = 2025-12-07T06:10:13.624896
MEAN_MOTION    = 15.16180249
ECCENTRICITY   = .00322549
INCLINATION    = 43.0121
RA_OF_ASC_NODE = 170.0516
ARG_OF_PERICENTER = 8.1882
MEAN_ANOMALY   = 351.9486

EPHEMERIS_TYPE = 0
CLASSIFICATION_TYPE = U
NORAD_CAT_ID   = 42758
ELEMENT_SET_NO = 999
REV_AT_EPOCH   = 46850
BSTAR          = .30881907E-3
MEAN_MOTION_DOT = .5912E-4
MEAN_MOTION_DDOT = 0

CCSDS_OMM_VERS = 2.0
CREATION_DATE  = 
ORIGINATOR     = 

OBJECT_NAME    = CZ-2C R/B
OBJECT_ID      = 2018-054D
CENTER_NAME    = EARTH
REF_FRAME      = TEME
TIME_SYSTEM    = UTC
MEAN_ELEMENT_THEORY = SGP/SGP4

EPOCH          = 2025-12-07T00:34:48.316512
MEAN_MOTION    = 15.72652842
ECCENTRICITY   = .00163365
INCLINATION    = 35.1328
RA_OF_ASC_NODE = 219.6191
ARG_OF_PERICENTER = 83.3792
MEAN_ANOMALY   = 276.8800

EPHEMERIS_TYPE = 0
CLASSIFICATION_TYPE = U
NORAD_CAT_ID   = 43521
ELEMENT_SET_NO = 999
REV_AT_EPOCH   = 41415
BSTAR          = .88077361E-3
MEAN_MOTION_DOT = .125642E-2
MEAN_MOTION_DDOT = 0

CCSDS_OMM_VERS = 2.0
CREATION_DATE  = 
ORIGINATOR     = 

OBJECT_NAME    = SAOCOM 1A
OBJECT_ID      = 2018-076A
CENTER_NAME    = EARTH
REF_FRAME      = TEME
TIME_SYSTEM    = UTC
MEAN_ELEMENT_THEORY = SGP/SGP4

EPOCH          = 2025-12-07T06:30:18.717408
MEAN_MOTION    = 14.82148366
ECCENTRICITY   = .00014927
INCLINATION    = 97.8853
RA_OF_ASC_NODE = 165.7731
ARG_OF_PERICENTER = 87.4362
MEAN_ANOMALY   = 272.7022

EPHEMERIS_TYPE = 0
CLASSIFICATION_TYPE = U
NORAD_CAT_ID   = 43641
ELEMENT_SET_NO = 999
REV_AT_EPOCH   = 38767
BSTAR          = .12606454E-3
MEAN_MOTION_DOT = .951E-5
MEAN_MOTION_DDOT = 0

CCSDS_OMM_VERS = 2.0
CREATION_DATE  = 
ORIGINATOR     = 

OBJECT_NAME    = H-2A R/B
OBJECT_ID      = 2018-084L
CENTER_NAME    = EARTH
REF_FRAME      = TEME
TIME_SYSTEM    = UTC
MEAN_ELEMENT_THEORY = SGP/SGP4

EPOCH          = 2025-12-07T06:57:17.044704
MEAN_MOTION    = 15.37084838
ECCENTRICITY   = .00278026
INCLINATION    = 98.8775
RA_OF_ASC_NODE = 174.2406
ARG_OF_PERICENTER = 345.3256
MEAN_ANOMALY   = 14.7174

EPHEMERIS_TYPE = 0
CLASSIFICATION_TYPE = U
NORAD_CAT_ID   = 43682
ELEMENT_SET_NO = 999
REV_AT_EPOCH   = 39156
BSTAR          = .73304766E-3
MEAN_MOTION_DOT = .26909E-3
MEAN_MOTION_DDOT = 0

CCSDS_OMM_VERS = 2.0
CREATION_DATE  = 
ORIGINATOR     = 

OBJECT_NAME    = SAOCOM 1B
OBJECT_ID      = 2020-059A
CENTER_NAME    = EARTH
REF_FRAME      = TEME
TIME_SYSTEM    = UTC
MEAN_ELEMENT_THEORY = SGP/SGP4

EPOCH          = 2025-12-07T05:38:06.535968
MEAN_MOTION    = 14.82150016
ECCENTRICITY   = .00012674
INCLINATION    = 97.8848
RA_OF_ASC_NODE = 164.8382
ARG_OF_PERICENTER = 87.4491
MEAN_ANOMALY   = 272.6867

EPHEMERIS_TYPE = 0
CLASSIFICATION_TYPE = U
NORAD_CAT_ID   = 46265
ELEMENT_SET_NO = 999
REV_AT_EPOCH   = 28505
BSTAR          = .76982267E-4
MEAN_MOTION_DOT = .561E-5
MEAN_MOTION_DDOT = 0

CCSDS_OMM_VERS = 2.0
CREATION_DATE  = 
ORIGINATOR     = 

OBJECT_NAME    = CSS (TIANHE)
OBJECT_ID      = 2021-035A
CENTER_NAME    = EARTH
REF_FRAME      = TEME
TIME_SYSTEM    = UTC
MEAN_ELEMENT_THEORY = SGP/SGP4

EPOCH          = 2025-12-07T06:28:07.735872
MEAN_MOTION    = 15.58832972
ECCENTRICITY   = .00093583
INCLINATION    = 41.4682
RA_OF_ASC_NODE = 49.9091
ARG_OF_PERICENTER = 347.3920
MEAN_ANOMALY   = 12.6683

EPHEMERIS_TYPE = 0
CLASSIFICATION_TYPE = U
NORAD_CAT_ID   = 48274
ELEMENT_SET_NO = 999
REV_AT_EPOCH   = 26317
BSTAR          = .3547841E-3
MEAN_MOTION_DOT = .28044E-3
MEAN_MOTION_DDOT = 0

CCSDS_OMM_VERS = 2.0
CREATION_DATE  = 
ORIGINATOR     = 

OBJECT_NAME    = COSMOS 2550
OBJECT_ID      = 2021-056A
CENTER_NAME    = EARTH
REF_FRAME      = TEME
TIME_SYSTEM    = UTC
MEAN_ELEMENT_THEORY = SGP/SGP4

EPOCH          = 2025-12-07T05:58:00.272928
MEAN_MOTION    = 15.33828869
ECCENTRICITY   = .00083351
INCLINATION    = 67.1449
RA_OF_ASC_NODE = 320.5428
ARG_OF_PERICENTER = 269.7672
MEAN_ANOMALY   = 90.2527

EPHEMERIS_TYPE = 0
CLASSIFICATION_TYPE = U
NORAD_CAT_ID   = 48865
ELEMENT_SET_NO = 999
REV_AT_EPOCH   = 24928
BSTAR          = .10897346E-3
MEAN_MOTION_DOT = .3395E-4
MEAN_MOTION_DDOT = 0

CCSDS_OMM_VERS = 2.0
CREATION_DATE  = 
ORIGINATOR     = 

OBJECT_NAME    = CZ-2C R/B
OBJECT_ID      = 2022-058K
CENTER_NAME    = EARTH
REF_FRAME      = TEME
TIME_SYSTEM    = UTC
MEAN_ELEMENT_THEORY = SGP/SGP4

EPOCH          = 2025-12-06T13:07:33.971808
MEAN_MOTION    = 15.48070272
ECCENTRICITY   = .00460312
INCLINATION    = 50.1912
RA_OF_ASC_NODE = 75.1214
ARG_OF_PERICENTER = 172.9477
MEAN_ANOMALY   = 187.2148

EPHEMERIS_TYPE = 0
CLASSIFICATION_TYPE = U
NORAD_CAT_ID   = 52794
ELEMENT_SET_NO = 999
REV_AT_EPOCH   = 19567
BSTAR          = .72203675E-3
MEAN_MOTION_DOT = .39941E-3
MEAN_MOTION_DDOT = 0

