SL-4 R/B                
1 39679U 14021B   25341.28279214  .00017420  00000+0  41351-3 0  9992
2 39679  51.6080  67.1110 0102324 126.4922 234.5541 15.36471770642052
ALOS-2                  
1 39766U 14029A   25341.26474461  .00003441  00000+0  46764-3 0  9997
2 39766  97.9233  76.1891 0001458 104.9983 255.1390 14.79458027623205
YAOGAN-29               
1 41038U 15069A   25341.28646136  .00000905  00000+0  11844-3 0  9992
2 41038  98.0223   4.4405 0000449 355.0125   5.1083 14.82873565542183
ASTRO-H (HITOMI)        
1 41337U 16012A   25341.06892728  .00005331  00000+0  32036-3 0  9993
2 41337  30.9987 233.9309 0009463 121.5096 238.6468 15.09298892538221
HXMT (HUIYAN)           
1 42758U 17034A   25341.25710214  .00005912  00000+0  30882-3 0  9998
2 42758  43.0121 170.0516 0032254   8.1882 351.9486 15.16180249468508
CZ-2C R/B               
1 43521U 18054D   25341.02417033  .00125642  00000+0  88077-3 0  9990
2 43521  35.1328 219.6191 0016336  83.3792 276.8800 15.72652842414157
SAOCOM 1A               
1 43641U 18076A   25341.27104997  .00000951  00000+0  12606-3 0  9996
2 43641  97.8853 165.7731 0001492  87.4362 272.7022 14.82148366387672
H-2A R/B                
1 43682U 18084L   25341.28978061  .00026909  00000+0  73305-3 0  9996
2 43682  98.8775 174.2406 0027802 345.3256  14.7174 15.37084838391565
SAOCOM 1B               
1 46265U 20059A   25341.23479787  .00000561  00000+0  76982-4 0  9998
2 46265  97.8848 164.8382 0001267  87.4491 272.6867 14.82150016285056
CSS (TIANHE)            
1 48274U 21035A   25341.26953398  .00028044  00000+0  35478-3 0  9993
2 48274  41.4682  49.9091 0009358 347.3920  12.6683 15.58832972263172
COSMOS 2550             
1 48865U 21056A   25341.24861427  .00003395  00000+0  10897-3 0  9991
2 48865  67.1449 320.5428 0008335 269.7672  90.2527 15.33828869249289
CZ-2C R/B               
1 52794U 22058K   25340.54692097  .00039941  00000+0  72204-3 0  9993
2 52794  50.1912  75.1214 0046031 172.9477 187.2148 15.48070272195673
